IRIDIUM 106             
1 41917U 17003A   26159.09534943  .00000049  00000+0  10271-4 0  9990
2 41917  86.3961  92.3567 0001905  80.8162 279.3249 14.34217868491902
IRIDIUM 103             
1 41918U 17003B   26158.80359007  .00000312  00000+0  10450-3 0  9996
2 41918  86.3962  92.3783 0002473  81.0080 279.1395 14.34217886491884
IRIDIUM 109             
1 41919U 17003C   26158.80993389  .00000054  00000+0  12165-4 0  9993
2 41919  86.3961  92.4353 0002307  83.8606 276.2852 14.34217906491854
IRIDIUM 102             
1 41920U 17003D   26158.77822065  .00000138  00000+0  42248-4 0  9991
2 41920  86.3958  92.3723 0002274  86.4699 273.6757 14.34217727491931
IRIDIUM 105             
1 41921U 17003E   26159.15543463  .00000238  00000+0  78085-4 0  9996
2 41921  86.3971  60.6459 0002544  86.9566 273.1921 14.34221093493840
IRIDIUM 104             
1 41922U 17003F   26158.79090617  .00000077  00000+0  20493-4 0  9995
2 41922  86.3962  92.4093 0002526  83.8235 276.3249 14.34218081491925
IRIDIUM 114             
1 41923U 17003G   26158.79724875  .00000068  00000+0  17330-4 0  9992
2 41923  86.3959  92.3898 0002396  83.1455 277.0014 14.34217953491909
IRIDIUM 108             
1 41924U 17003H   26159.10461222 -.00000112  00000+0 -47033-4 0  9998
2 41924  86.3964  60.5576 0002105  88.5762 271.5675 14.34216611493807
IRIDIUM 112             
1 41925U 17003J   26158.78456247  .00000257  00000+0  84556-4 0  9992
2 41925  86.3957  92.2377 0002386  85.5643 274.5826 14.34217567491920
IRIDIUM 111             
1 41926U 17003K   26158.91141514  .00000046  00000+0  92758-5 0  9996
2 41926  86.3957  92.2551 0002303  84.8306 275.3152 14.34217893491925
IRIDIUM 113             
1 42803U 17039A   26159.17045375  .00000142  00000+0  43635-4 0  9993
2 42803  86.3964 325.9490 0002311  90.0902 270.0558 14.34217849469890
IRIDIUM 123             
1 42804U 17039B   26158.93285697  .00000105  00000+0  30570-4 0  9993
2 42804  86.3974 357.5068 0002092  83.7405 276.4029 14.34218199468629
IRIDIUM 120             
1 42805U 17039C   26159.16409193  .00000267  00000+0  88384-4 0  9994
2 42805  86.3953 325.7353 0002020  93.2070 266.9357 14.34223909469888
IRIDIUM 115             
1 42806U 17039D   26159.17489439  .00000412  00000+0  11646-3 0  9995
2 42806  86.4492 325.8583 0002024  86.2079 273.9354 14.43279959472963
IRIDIUM 118             
1 42807U 17039E   26159.03433875  .00000194  00000+0  62104-4 0  9997
2 42807  86.3974 357.4626 0002134  87.3412 272.8028 14.34218767468637
IRIDIUM 117             
1 42808U 17039F   26159.05336736  .00000011  00000+0 -32654-5 0  9995
2 42808  86.3968 357.4122 0002067  85.7109 274.4323 14.34217507468662
IRIDIUM 126             
1 42809U 17039G   26159.00896794  .00000104  00000+0  29912-4 0  9990
2 42809  86.3973 357.4817 0002259  85.3056 274.8397 14.34217734468634
IRIDIUM 124             
1 42810U 17039H   26158.90071914  .00000571  00000+0  16385-3 0  9996
2 42810  86.4475 294.2427 0002163  91.1595 268.9854 14.43281364473779
IRIDIUM 128             
1 42811U 17039J   26159.13924396  .00000020  00000+0  23058-6 0  9991
2 42811  86.3972  28.9333 0001880  85.4684 274.6727 14.34217633468684
IRIDIUM 121             
1 42812U 17039K   26159.09776397  .00000189  00000+0  60262-4 0  9995
2 42812  86.3974 357.4725 0002101  89.6909 270.4527 14.34218925468525
IRIDIUM 133             
1 42955U 17061A   26159.10118404  .00000166  00000+0  52183-4 0  9997
2 42955  86.3979  29.0668 0002130  85.1861 274.9577 14.34217035453479
IRIDIUM 100             
1 42956U 17061B   26159.16461403  .00000037  00000+0  61820-5 0  9990
2 42956  86.3975  28.9592 0002152  86.1588 273.9854 14.34217928453480
IRIDIUM 122             
1 42957U 17061C   26159.13290154  .00000018  00000+0 -66680-6 0  9991
2 42957  86.3975  28.9728 0002213  84.6979 275.4469 14.34217749453487
IRIDIUM 129             
1 42958U 17061D   26159.15827223  .00000098  00000+0  28046-4 0  9996
2 42958  86.3977  29.0289 0002412  88.3067 271.8405 14.34217731453508
IRIDIUM 119             
1 42959U 17061E   26159.12655943  .00000037  00000+0  62655-5 0  9990
2 42959  86.3978  29.0381 0002264  84.5701 275.5753 14.34217634453511
IRIDIUM 107             
1 42960U 17061F   26159.14558586  .00000121  00000+0  36036-4 0  9996
2 42960  86.3979  29.0512 0002066  80.5372 279.6057 14.34217978453524
IRIDIUM 132             
1 42961U 17061G   26159.15192902  .00000066  00000+0  16616-4 0  9994
2 42961  86.3978  29.0281 0002218  85.1422 275.0027 14.34218086453521
IRIDIUM 136             
1 42962U 17061H   26159.11387144  .00000059  00000+0  14071-4 0  9990
2 42962  86.3977  29.0505 0002199  84.2812 275.8635 14.34216735453534
IRIDIUM 139             
1 42963U 17061J   26159.12021602  .00000152  00000+0  47232-4 0  9995
2 42963  86.3980  29.1099 0002085  85.4821 274.6613 14.34217849453546
IRIDIUM 125             
1 42964U 17061K   26159.10753171  .00000068  00000+0  17298-4 0  9992
2 42964  86.3980  29.1758 0002470  75.7300 284.4170 14.34217942453553
IRIDIUM 135             
1 43070U 17083A   26159.01188834 -.00000008  00000+0 -99246-5 0  9993
2 43070  86.3956 325.8527 0002093  91.7081 268.4354 14.34217584442837
