OBJECT_NAME,OBJECT_ID,EPOCH,MEAN_MOTION,ECCENTRICITY,INCLINATION,RA_OF_ASC_NODE,ARG_OF_PERICENTER,MEAN_ANOMALY,EPHEMERIS_TYPE,CLASSIFICATION_TYPE,NORAD_CAT_ID,ELEMENT_SET_NO,REV_AT_EPOCH,BSTAR,MEAN_MOTION_DOT,MEAN_MOTION_DDOT
IRIDIUM 106,2017-003A,2026-06-08T02:17:18.190752,14.34217868,.0001905,86.3961,92.3567,80.8162,279.3249,0,U,41917,999,49190,.10271E-4,.49E-6,0
IRIDIUM 103,2017-003B,2026-06-07T19:17:10.182048,14.34217886,.0002473,86.3962,92.3783,81.0080,279.1395,0,U,41918,999,49188,.1045E-3,.312E-5,0
IRIDIUM 109,2017-003C,2026-06-07T19:26:18.288096,14.34217906,.0002307,86.3961,92.4353,83.8606,276.2852,0,U,41919,999,49185,.12165E-4,.54E-6,0
IRIDIUM 102,2017-003D,2026-06-07T18:40:38.264160,14.34217727,.0002274,86.3958,92.3723,86.4699,273.6757,0,U,41920,999,49193,.42248E-4,.138E-5,0
IRIDIUM 105,2017-003E,2026-06-08T03:43:49.552032,14.34221093,.0002544,86.3971,60.6459,86.9566,273.1921,0,U,41921,999,49384,.78085E-4,.238E-5,0
IRIDIUM 104,2017-003F,2026-06-07T18:58:54.293088,14.34218081,.0002526,86.3962,92.4093,83.8235,276.3249,0,U,41922,999,49192,.20493E-4,.77E-6,0
IRIDIUM 114,2017-003G,2026-06-07T19:08:02.292000,14.34217953,.0002396,86.3959,92.3898,83.1455,277.0014,0,U,41923,999,49190,.1733E-4,.68E-6,0
IRIDIUM 108,2017-003H,2026-06-08T02:30:38.495808,14.34216611,.0002105,86.3964,60.5576,88.5762,271.5675,0,U,41924,999,49380,-.47033E-4,-.112E-5,0
IRIDIUM 112,2017-003J,2026-06-07T18:49:46.197408,14.34217567,.0002386,86.3957,92.2377,85.5643,274.5826,0,U,41925,999,49192,.84556E-4,.257E-5,0
IRIDIUM 111,2017-003K,2026-06-07T21:52:26.268096,14.34217893,.0002303,86.3957,92.2551,84.8306,275.3152,0,U,41926,999,49192,.92758E-5,.46E-6,0
IRIDIUM 113,2017-039A,2026-06-08T04:05:27.204000,14.34217849,.0002311,86.3964,325.9490,90.0902,270.0558,0,U,42803,999,46989,.43635E-4,.142E-5,0
IRIDIUM 123,2017-039B,2026-06-07T22:23:18.842208,14.34218199,.0002092,86.3974,357.5068,83.7405,276.4029,0,U,42804,999,46862,.3057E-4,.105E-5,0
IRIDIUM 120,2017-039C,2026-06-08T03:56:17.542752,14.34223909,.000202,86.3953,325.7353,93.2070,266.9357,0,U,42805,999,46988,.88384E-4,.267E-5,0
IRIDIUM 115,2017-039D,2026-06-08T04:11:50.875296,14.43279959,.0002024,86.4492,325.8583,86.2079,273.9354,0,U,42806,999,47296,.11646E-3,.412E-5,0
IRIDIUM 118,2017-039E,2026-06-08T00:49:26.868000,14.34218767,.0002134,86.3974,357.4626,87.3412,272.8028,0,U,42807,999,46863,.62104E-4,.194E-5,0
IRIDIUM 117,2017-039F,2026-06-08T01:16:50.939904,14.34217507,.0002067,86.3968,357.4122,85.7109,274.4323,0,U,42808,999,46866,-.32654E-5,.11E-6,0
IRIDIUM 126,2017-039G,2026-06-08T00:12:54.830016,14.34217734,.0002259,86.3973,357.4817,85.3056,274.8397,0,U,42809,999,46863,.29912E-4,.104E-5,0
IRIDIUM 124,2017-039H,2026-06-07T21:37:02.133696,14.43281364,.0002163,86.4475,294.2427,91.1595,268.9854,0,U,42810,999,47377,.16385E-3,.571E-5,0
IRIDIUM 128,2017-039J,2026-06-08T03:20:30.678144,14.34217633,.000188,86.3972,28.9333,85.4684,274.6727,0,U,42811,999,46868,.23058E-6,.2E-6,0
IRIDIUM 121,2017-039K,2026-06-08T02:20:46.807008,14.34218925,.0002101,86.3974,357.4725,89.6909,270.4527,0,U,42812,999,46852,.60262E-4,.189E-5,0
IRIDIUM 133,2017-061A,2026-06-08T02:25:42.301056,14.34217035,.000213,86.3979,29.0668,85.1861,274.9577,0,U,42955,999,45347,.52183E-4,.166E-5,0
IRIDIUM 100,2017-061B,2026-06-08T03:57:02.652192,14.34217928,.0002152,86.3975,28.9592,86.1588,273.9854,0,U,42956,999,45348,.6182E-5,.37E-6,0
IRIDIUM 122,2017-061C,2026-06-08T03:11:22.693056,14.34217749,.0002213,86.3975,28.9728,84.6979,275.4469,0,U,42957,999,45348,-.6668E-6,.18E-6,0
IRIDIUM 129,2017-061D,2026-06-08T03:47:54.720672,14.34217731,.0002412,86.3977,29.0289,88.3067,271.8405,0,U,42958,999,45350,.28046E-4,.98E-6,0
IRIDIUM 119,2017-061E,2026-06-08T03:02:14.734752,14.34217634,.0002264,86.3978,29.0381,84.5701,275.5753,0,U,42959,999,45351,.62655E-5,.37E-6,0
IRIDIUM 107,2017-061F,2026-06-08T03:29:38.618304,14.34217978,.0002066,86.3979,29.0512,80.5372,279.6057,0,U,42960,999,45352,.36036E-4,.121E-5,0
IRIDIUM 132,2017-061G,2026-06-08T03:38:46.667328,14.34218086,.0002218,86.3978,29.0281,85.1422,275.0027,0,U,42961,999,45352,.16616E-4,.66E-6,0
IRIDIUM 136,2017-061H,2026-06-08T02:43:58.492416,14.34216735,.0002199,86.3977,29.0505,84.2812,275.8635,0,U,42962,999,45353,.14071E-4,.59E-6,0
IRIDIUM 139,2017-061J,2026-06-08T02:53:06.664128,14.34217849,.0002085,86.3980,29.1099,85.4821,274.6613,0,U,42963,999,45354,.47232E-4,.152E-5,0
IRIDIUM 125,2017-061K,2026-06-08T02:34:50.739744,14.34217942,.000247,86.3980,29.1758,75.7300,284.4170,0,U,42964,999,45355,.17298E-4,.68E-6,0
IRIDIUM 135,2017-083A,2026-06-08T00:17:07.152576,14.34217584,.0002093,86.3956,325.8527,91.7081,268.4354,0,U,43070,999,44283,-.99246E-5,-.8E-7,0
